ESTCUBE 1               
1 39161U 13021C   21259.20055918  .00000245  00000-0  46331-4 0  9998
2 39161  97.9335 338.2899 0008715 215.0441 145.0194 14.72529706449103
FENGYUN 3C              
1 39260U 13052A   21259.72043455  .00000003  00000-0  22324-4 0  9990
2 39260  98.4909 296.2185 0010908 350.0172  10.0776 14.15877806413185
CASSIOPE                
1 39265U 13055A   21259.51698730  .00008030  00000-0  21995-3 0  9997
2 39265  80.9676 196.4242 0646880  46.4380 318.8675 14.32966445413031
ZACUBE-1 (TSHEPISOSAT)  
1 39417U 13066B   21259.49134247  .00000347  00000-0  49446-4 0  9998
2 39417  97.6017 239.1434 0057384 221.6398 138.0440 14.81592918422556
CINEMA-3 (KHUSAT-2)     
1 39426U 13066L   21259.35553832  .00000305  00000-0  55047-4 0  9996
2 39426  97.7627 206.8354 0104999  34.5805 326.2172 14.69723913419001
TRITON-1                
1 39427U 13066M   21259.56734030  .00000469  00000-0  81566-4 0  9997
2 39427  97.7809 202.8989 0114566  60.2075 301.0466 14.68304039418784
DELFI-N3XT              
1 39428U 13066N   21259.41087161  .00000685  00000-0  11468-3 0  9991
2 39428  97.7847 201.2389 0121075  73.5285 287.9185 14.68103530418319
GOMX-1                  
1 39430U 13066Q   21259.70489547  .00000206  00000-0  46043-4 0  9997
2 39430  97.8095 177.5290 0149895 186.9976 172.9138 14.59671313416352
BRITE-PL1 (LEM)         
1 39431U 13066R   21259.37694439  .00000098  00000-0  31202-4 0  9999
2 39431  97.7368 131.8776 0202071 357.8179   2.2113 14.47165787412722
ICUBE-1                 
1 39432U 13066S   21259.29714548  .00000491  00000-0  54516-4 0  9995
2 39432  97.4740 272.5384 0033392  99.4390 261.0606 14.90981517423846
HUMSAT-D                
1 39433U 13066T   21259.33155684  .00000953  00000-0  95860-4 0  9991
2 39433  97.4670 279.7080 0031910  78.5617 281.9185 14.93030093424307
VELOX-PII               
1 39438U 13066Y   21259.40841841  .00000310  00000-0  48078-4 0  9997
2 39438  97.6523 229.7983 0068659 269.1284  90.2060 14.78284590420514
FIRST-MOVE              
1 39439U 13066Z   21259.45582181  .00000704  00000-0  90662-4 0  9995
2 39439  97.6062 240.7763 0063300 219.1874 140.4748 14.82753272421436
CUBEBUG-2 (LO-74)       
1 39440U 13066AA  21259.47954860  .00000396  00000-0  61643-4 0  9990
2 39440  97.6858 224.3775 0078459 300.9109  58.4404 14.76317257419855
NEE-02 KRYSAOR          
1 39441U 13066AB  21259.40391339  .00000295  00000-0  48920-4 0  9991
2 39441  97.6955 221.6104 0080310 312.9414  46.5077 14.75236862419621
FUNCUBE-1 (AO-73)       
1 39444U 13066AE  21259.48680468  .00000413  00000-0  56490-4 0  9999
2 39444  97.5918 241.5186 0056617 211.2892 148.4948 14.82515960420928
HINCUBE                 
1 39445U 13066AF  21259.77514964  .00000392  00000-0  54124-4 0  9997
2 39445  97.5934 241.6354 0056611 212.2759 147.4987 14.82346803421091
UWE-3                   
1 39446U 13066AG  21259.43129760  .00000355  00000-0  53357-4 0  9993
2 39446  97.6465 231.1659 0067993 262.6404  96.7077 14.78858267419950
AIST-1 (RS-41)          
1 39492U 13078C   21259.87004452  .00000234  00000-0  22728-4 0  9999
2 39492  82.4202 138.3131 0018457 296.0543  63.8750 14.88072567419091
SPROUT                  
1 39770U 14029E   21259.56140549  .00001579  00000-0  17528-3 0  9993
2 39770  97.9213  10.8007 0007550 268.9320  91.1026 14.88643464396894
UNISAT-6                
1 40012U 14033C   21259.51146944  .00000269  00000-0  47028-4 0  9993
2 40012  97.6711  97.1256 0057309 327.0902  32.6744 14.74373958389611
BUGSAT-1 (TITA)         
1 40014U 14033E   21259.60094149  .00000043  00000-0  95552-5 0  9990
2 40014  98.1195 242.4008 0030144 222.0142 137.8757 14.95838682395198
DUCHIFAT-1              
1 40021U 14033M   21259.37744617  .00000854  00000-0  91144-4 0  9996
2 40021  97.9769 200.5623 0011566 220.1981 139.8383 14.91470216393832
NANOSATC-BR1            
1 40024U 14033Q   21259.39860282  .00000523  00000-0  59385-4 0  9992
2 40024  97.9539 195.2539 0010858 226.2028 133.8292 14.90549790393148
QB50P1                  
1 40025U 14033R   21259.37863688  .00000482  00000-0  56557-4 0  9996
2 40025  97.9338 190.3141 0011032 236.1812 123.8356 14.89534426392953
DTUSAT-2                
1 40030U 14033W   21259.34182066  .00000478  00000-0  56653-4 0  9995
2 40030  97.9154 186.5708 0010498 232.3737 127.6528 14.89075863392846
QB50P2                  
1 40032U 14033Y   21259.50915297  .00000415  00000-0  50101-4 0  9998
2 40032  97.9160 186.7463 0010466 232.6013 127.4251 14.89035708392845
POLYITAN-1              
1 40042U 14033AJ  21259.37444981  .00000625  00000-0  71806-4 0  9999
2 40042  97.9435 191.1987 0013298 227.8044 132.2045 14.89357860392849
TIGRISAT                
1 40043U 14033AK  21259.45428692  .00000199  00000-0  36426-4 0  9995
2 40043  97.6673  98.4530 0058922 324.9882  34.7459 14.74582432389240
AISAT                   
1 40054U 14034B   21259.70529849  .00000647  00000-0  96091-4 0  9994
2 40054  98.3339  55.9075 0013905 110.3931 249.8773 14.78544241389018
CANX-4                  
1 40055U 14034C   21259.65630189  .00000166  00000-0  32697-4 0  9997
2 40055  98.3196  43.3688 0014961 145.5027 214.7155 14.75089411388384
CANX-5                  
1 40056U 14034D   21259.39025070  .00000179  00000-0  34651-4 0  9992
2 40056  98.3195  43.0801 0014942 146.4912 213.7244 14.75081754379122
VELOX-I                 
1 40057U 14034E   21259.84685096  .00000586  00000-0  88390-4 0  9994
2 40057  98.3397  57.1339 0011934 122.4149 237.8220 14.78268437389044
METEOR-M 2              
1 40069U 14037A   21259.71060661 -.00000038  00000-0  17182-5 0  9996
2 40069  98.4556 284.7091 0006576  45.3170 314.8530 14.20687835372991
DX1                     
1 40071U 14037C   21259.89878646  .00000173  00000-0  29553-4 0  9991
2 40071  98.4445 109.4830 0009442 110.7261 249.4964 14.81538327388830
UKUBE-1                 
1 40074U 14037F   21259.50268547  .00000422  00000-0  56984-4 0  9990
2 40074  98.4190 120.3978 0005458  89.2793 270.9064 14.84631427389411
FIREBIRD 3              
1 40377U 15003B   21259.42863667  .00004908  00000-0  17701-3 0  9991
2 40377  99.1109  59.8327 0115123 227.5952 131.5495 15.23109334366634
FIREBIRD 4              
1 40378U 15003C   21259.40192237  .00005390  00000-0  19360-3 0  9997
2 40378  99.1115  59.9566 0115196 227.4568 131.6895 15.23162010366635
GRIFEX                  
1 40379U 15003D   21259.67714270  .00003065  00000-0  12498-3 0  9996
2 40379  99.1078  48.8043 0126020 261.3973  97.2961 15.18552791366034
CP10 (EXOCUBE)          
1 40380U 15003E   21259.81651636  .00002157  00000-0  94449-4 0  9998
2 40380  99.1087  43.0161 0131810 281.1260  77.5171 15.16142739365663
DEORBITSAIL             
1 40719U 15032E   21259.49822036  .00000552  00000-0  84302-4 0  9998
2 40719  97.8148 141.6021 0016117 167.5105 192.6508 14.77472683333421
NUDT-PHONESAT           
1 40900U 15049B   21259.87678536  .00005428  00000-0  20599-3 0  9998
2 40900  97.4188 273.4266 0011924 168.1741 312.9833 15.27206473332775
XW-2A                   
1 40903U 15049E   21259.91597545  .00005295  00000-0  10987-3 0  9998
2 40903  97.2270 314.1151 0013124  47.2053  71.4065 15.46055569336925
XW-2C                   
1 40906U 15049H   21259.86592803  .00001561  00000-0  82414-4 0  9994
2 40906  97.4892 261.1013 0013178 226.1242 253.4854 15.16956437331424
XW-2D                   
1 40907U 15049J   21259.84032529  .00001452  00000-0  76164-4 0  9991
2 40907  97.4889 260.9037 0012533 221.7012 259.3332 15.17303621331455
LILACSAT-2              
1 40908U 15049K   21259.86238810  .00001024  00000-0  59016-4 0  9997
2 40908  97.5085 258.6347 0014240 241.7252 237.0013 15.14567697331066
XW-2E                   
1 40909U 15049L   21259.84005985  .00002317  00000-0  11096-3 0  9992
2 40909  97.4678 265.0289 0012215 204.7177 276.9648 15.19891660331810
XW-2F                   
1 40910U 15049M   21259.87295350  .00002461  00000-0  11933-3 0  9994
2 40910  97.4742 264.1465 0013284 205.2880 273.7722 15.19391700331609
XW-2B                   
1 40911U 15049N   21259.84792889  .00001488  00000-0  78152-4 0  9996
2 40911  97.4881 261.5790 0012527 222.9080 256.6297 15.17217809331346
KAITUO 1B               
1 40912U 15049P   21259.84874137  .00002655  00000-0  11921-3 0  9991
2 40912  97.4460 268.5076 0014202 175.5589 307.3423 15.21975494332097
TIANWANG 1A (TW-1A)     
1 40928U 15051D   21259.90747866  .00008595  00000-0  17179-3 0  9996
2 40928  97.0720 282.6525 0007670 328.1238 153.1044 15.47005938335828
LAPAN-A2                
1 40931U 15052B   21258.57404626  .00000745  00000-0  14687-4 0  9998
2 40931   6.0051 329.6786 0012599 242.2191 117.6901 14.76689256322645
LQSAT                   
1 40958U 15057A   21259.69468669  .00000091  00000-0  21464-4 0  9998
2 40958  97.7931 312.5454 0019178 120.0259 240.2848 14.73196488319678
ATHENOXAT 1             
1 41168U 15077C   21259.52469525  .00003987  00000-0  16491-3 0  9998
2 41168  14.9901 311.2318 0011198   5.9923  31.2461 15.16114319318622
GALASSIA                
1 41170U 15077E   21259.75352040  .00003084  00000-0  11885-3 0  9999
2 41170  14.9891 300.0824 0012004  37.7604 322.3559 15.16281982318732
VELOX-II                
1 41171U 15077F   21259.63248692  .00002518  00000-0  10155-3 0  9994
2 41171  14.9926   2.0853 0008492 260.1520  99.7842 15.12815806318114
CHUBUSAT-2              
1 41338U 16012B   21259.59919197  .00000563  00000-0  36693-4 0  9993
2 41338  31.0037 326.2911 0013684 317.0609  42.8958 15.00603091306300
CHUBUSAT-3              
1 41339U 16012C   21259.54692917  .00000605  00000-0  39846-4 0  9997
2 41339  31.0132 323.7590 0013614 324.5672  35.4046 15.00745498306290
HORYU-4                 
1 41340U 16012D   21259.53341592  .00000859  00000-0  57323-4 0  9999
2 41340  31.0051 306.2715 0013748 357.5815   2.4753 15.02013327306492
